[
    {
        "Altitude(m)": 706920.9433023366,
        "Argument of Periapsis(deg)": 0.010251109067964361,
        "Eccentricity": 0.0,
        "Inclination(deg)": 45.0,
        "Latitude(deg)": 43.43628466753113,
        "Longitude(deg)": 44.65645419140064,
        "Mean Anomaly(deg)": 75.83439498273275,
        "RAAN(deg)": 74.99032325268763,
        "Satellite Name": "Constellation 1 334",
        "Satellite Number": 334,
        "Semi-Major Axis(m)": 7083131.272910544,
        "Time(s)": 171
    },
    {
        "Altitude(m)": 706924.1768493403,
        "Argument of Periapsis(deg)": 0.010311057074209765,
        "Eccentricity": 0.0,
        "Inclination(deg)": 45.0,
        "Latitude(deg)": 43.4507236974477,
        "Longitude(deg)": 44.73339571659287,
        "Mean Anomaly(deg)": 75.89509612298261,
        "RAAN(deg)": 74.99026666352205,
        "Satellite Name": "Constellation 1 334",
        "Satellite Number": 334,
        "Semi-Major Axis(m)": 7083131.272910544,
        "Time(s)": 172
    },
    {
        "Altitude(m)": 706927.3980129769,
        "Argument of Periapsis(deg)": 0.010371005080455171,
        "Eccentricity": 0.0,
        "Inclination(deg)": 45.0,
        "Latitude(deg)": 43.4651052398073,
        "Longitude(deg)": 44.810375708989866,
        "Mean Anomaly(deg)": 75.95579726323251,
        "RAAN(deg)": 74.99021007435648,
        "Satellite Name": "Constellation 1 334",
        "Satellite Number": 334,
        "Semi-Major Axis(m)": 7083131.272910544,
        "Time(s)": 173
    },
    {
        "Altitude(m)": 706930.6067742534,
        "Argument of Periapsis(deg)": 0.010430953086700577,
        "Eccentricity": 0.0,
        "Inclination(deg)": 45.0,
        "Latitude(deg)": 43.47942923900532,
        "Longitude(deg)": 44.88739405255522,
        "Mean Anomaly(deg)": 76.01649840348244,
        "RAAN(deg)": 74.9901534851909,
        "Satellite Name": "Constellation 1 334",
        "Satellite Number": 334,
        "Semi-Major Axis(m)": 7083131.272910544,
        "Time(s)": 174
    },
    {
        "Altitude(m)": 706933.8031142446,
        "Argument of Periapsis(deg)": 0.010490901092945983,
        "Eccentricity": 0.0,
        "Inclination(deg)": 45.0,
        "Latitude(deg)": 43.49369563959304,
        "Longitude(deg)": 44.96445063069885,
        "Mean Anomaly(deg)": 76.07719954373233,
        "RAAN(deg)": 74.99009689602534,
        "Satellite Name": "Constellation 1 334",
        "Satellite Number": 334,
        "Semi-Major Axis(m)": 7083131.272910544,
        "Time(s)": 175
    },
    {
        "Altitude(m)": 706936.9870141128,
        "Argument of Periapsis(deg)": 0.010550849099191389,
        "Eccentricity": 0.0,
        "Inclination(deg)": 45.0,
        "Latitude(deg)": 43.507904386278504,
        "Longitude(deg)": 45.041545326277934,
        "Mean Anomaly(deg)": 76.13790068398225,
        "RAAN(deg)": 74.99004030685978,
        "Satellite Name": "Constellation 1 334",
        "Satellite Number": 334,
        "Semi-Major Axis(m)": 7083131.272910544,
        "Time(s)": 176
    },
    {
        "Altitude(m)": 706940.158455075,
        "Argument of Periapsis(deg)": 0.010610797105436795,
        "Eccentricity": 0.0,
        "Inclination(deg)": 45.0,
        "Latitude(deg)": 43.5220554239274,
        "Longitude(deg)": 45.118678021597155,
        "Mean Anomaly(deg)": 76.19860182423213,
        "RAAN(deg)": 74.9899837176942,
        "Satellite Name": "Constellation 1 334",
        "Satellite Number": 334,
        "Semi-Major Axis(m)": 7083131.272910544,
        "Time(s)": 177
    },
    {
        "Altitude(m)": 706943.3174184476,
        "Argument of Periapsis(deg)": 0.0106707451116822,
        "Eccentricity": 0.0,
        "Inclination(deg)": 45.0,
        "Latitude(deg)": 43.53614869756379,
        "Longitude(deg)": 45.19584843031259,
        "Mean Anomaly(deg)": 76.25930296448203,
        "RAAN(deg)": 74.98992712852863,
        "Satellite Name": "Constellation 1 334",
        "Satellite Number": 334,
        "Semi-Major Axis(m)": 7083131.272910544,
        "Time(s)": 178
    },
    {
        "Altitude(m)": 706946.4638855989,
        "Argument of Periapsis(deg)": 0.010730693117927606,
        "Eccentricity": 0.0,
        "Inclination(deg)": 45.0,
        "Latitude(deg)": 43.55018415237197,
        "Longitude(deg)": 45.27305676982094,
        "Mean Anomaly(deg)": 76.32000410473191,
        "RAAN(deg)": 74.98987053936307,
        "Satellite Name": "Constellation 1 334",
        "Satellite Number": 334,
        "Semi-Major Axis(m)": 7083131.272910544,
        "Time(s)": 179
    },
    {
        "Altitude(m)": 706949.5978379957,
        "Argument of Periapsis(deg)": 0.01079064112417301,
        "Eccentricity": 0.0,
        "Inclination(deg)": 45.0,
        "Latitude(deg)": 43.56416173369584,
        "Longitude(deg)": 45.350302752677095,
        "Mean Anomaly(deg)": 76.38070524498184,
        "RAAN(deg)": 74.98981395019749,
        "Satellite Name": "Constellation 1 334",
        "Satellite Number": 334,
        "Semi-Major Axis(m)": 7083131.272910544,
        "Time(s)": 180
    },
    {
        "Altitude(m)": 706952.7192571611,
        "Argument of Periapsis(deg)": 0.010850589130418416,
        "Eccentricity": 0.0,
        "Inclination(deg)": 45.0,
        "Latitude(deg)": 43.57808138704098,
        "Longitude(deg)": 45.42758625898357,
        "Mean Anomaly(deg)": 76.44140638523172,
        "RAAN(deg)": 74.98975736103192,
        "Satellite Name": "Constellation 1 334",
        "Satellite Number": 334,
        "Semi-Major Axis(m)": 7083131.272910544,
        "Time(s)": 181
    },
    {
        "Altitude(m)": 706955.828124706,
        "Argument of Periapsis(deg)": 0.01091053713666382,
        "Eccentricity": 0.0,
        "Inclination(deg)": 45.0,
        "Latitude(deg)": 43.59194305807514,
        "Longitude(deg)": 45.50490716829423,
        "Mean Anomaly(deg)": 76.5021075254816,
        "RAAN(deg)": 74.98970077186635,
        "Satellite Name": "Constellation 1 334",
        "Satellite Number": 334,
        "Semi-Major Axis(m)": 7083131.272910544,
        "Time(s)": 182
    },
    {
        "Altitude(m)": 706958.9244223087,
        "Argument of Periapsis(deg)": 0.010970485142909228,
        "Eccentricity": 0.0,
        "Inclination(deg)": 45.0,
        "Latitude(deg)": 43.60574669262919,
        "Longitude(deg)": 45.5822653596149,
        "Mean Anomaly(deg)": 76.56280866573152,
        "RAAN(deg)": 74.98964418270079,
        "Satellite Name": "Constellation 1 334",
        "Satellite Number": 334,
        "Semi-Major Axis(m)": 7083131.272910544,
        "Time(s)": 183
    },
    {
        "Altitude(m)": 706962.008131735,
        "Argument of Periapsis(deg)": 0.011030433149154634,
        "Eccentricity": 0.0,
        "Inclination(deg)": 45.0,
        "Latitude(deg)": 43.61949223669807,
        "Longitude(deg)": 45.65966071140417,
        "Mean Anomaly(deg)": 76.62350980598143,
        "RAAN(deg)": 74.98958759353522,
        "Satellite Name": "Constellation 1 334",
        "Satellite Number": 334,
        "Semi-Major Axis(m)": 7083131.272910544,
        "Time(s)": 184
    },
    {
        "Altitude(m)": 706965.0792348165,
        "Argument of Periapsis(deg)": 0.01109038115540004,
        "Eccentricity": 0.0,
        "Inclination(deg)": 45.0,
        "Latitude(deg)": 43.63317963644149,
        "Longitude(deg)": 45.737092933476916,
        "Mean Anomaly(deg)": 76.68421094623135,
        "RAAN(deg)": 74.98953100436965,
        "Satellite Name": "Constellation 1 334",
        "Satellite Number": 334,
        "Semi-Major Axis(m)": 7083131.272910544,
        "Time(s)": 185
    },
    {
        "Altitude(m)": 706968.13771346,
        "Argument of Periapsis(deg)": 0.011150329161645444,
        "Eccentricity": 0.0,
        "Inclination(deg)": 45.0,
        "Latitude(deg)": 43.64680883818566,
        "Longitude(deg)": 45.81456223939404,
        "Mean Anomaly(deg)": 76.74491208648122,
        "RAAN(deg)": 74.98947441520407,
        "Satellite Name": "Constellation 1 334",
        "Satellite Number": 334,
        "Semi-Major Axis(m)": 7083131.272910544,
        "Time(s)": 186
    },
    {
        "Altitude(m)": 706971.1835496568,
        "Argument of Periapsis(deg)": 0.01121027716789085,
        "Eccentricity": 0.0,
        "Inclination(deg)": 45.0,
        "Latitude(deg)": 43.66037978842287,
        "Longitude(deg)": 45.89206833788002,
        "Mean Anomaly(deg)": 76.80561322673111,
        "RAAN(deg)": 74.9894178260385,
        "Satellite Name": "Constellation 1 334",
        "Satellite Number": 334,
        "Semi-Major Axis(m)": 7083131.272910544,
        "Time(s)": 187
    },
    {
        "Altitude(m)": 706974.216725471,
        "Argument of Periapsis(deg)": 0.011270225174136258,
        "Eccentricity": 0.0,
        "Inclination(deg)": 45.0,
        "Latitude(deg)": 43.673892433813364,
        "Longitude(deg)": 45.96961110521257,
        "Mean Anomaly(deg)": 76.866314366981,
        "RAAN(deg)": 74.98936123687294,
        "Satellite Name": "Constellation 1 334",
        "Satellite Number": 334,
        "Semi-Major Axis(m)": 7083131.272910544,
        "Time(s)": 188
    },
    {
        "Altitude(m)": 706977.2372230359,
        "Argument of Periapsis(deg)": 0.011330173180381662,
        "Eccentricity": 0.0,
        "Inclination(deg)": 45.0,
        "Latitude(deg)": 43.687346721185925,
        "Longitude(deg)": 46.04719041712603,
        "Mean Anomaly(deg)": 76.92701550723093,
        "RAAN(deg)": 74.98930464770736,
        "Satellite Name": "Constellation 1 334",
        "Satellite Number": 334,
        "Semi-Major Axis(m)": 7083131.272910544,
        "Time(s)": 189
    }
]